{"type": "FeatureCollection", "features": [ {"type": "Feature", "properties": {"norad_id": 44542, "name": "BEIDOU-3 M24 (C46)", "group": "gnss", "lat": -53.02007954875023, "lon": 81.31878224952709, "alt_km": 21549.217929560666, "timestamp": "2025-12-07T09:35:10.034988+00:00", "meta": {"OBJECT_NAME": "BEIDOU-3 M24 (C46)", "OBJECT_ID": "2019-061A", "EPOCH": "2025-12-04T20:45:16.055424", "MEAN_MOTION": 1.86229249, "ECCENTRICITY": 0.00095755, "INCLINATION": 54.4001, "RA_OF_ASC_NODE": 189.282, "ARG_OF_PERICENTER": 24.0464, "MEAN_ANOMALY": 336.0883, "EPHEMERIS_TYPE": 0, "CLASSIFICATION_TYPE": "U", "NORAD_CAT_ID": 44542, "ELEMENT_SET_NO": 999, "REV_AT_EPOCH": 4217, "BSTAR": 0, "MEAN_MOTION_DOT": 9.8e-07, "MEAN_MOTION_DDOT": 0}, "tle": {"line1": "1 44542U 19061A   25338.86476916  .00000098  00000+0  00000+0 0  9999", "line2": "2 44542  54.4001 189.2820 0009575  24.0464 336.0883  1.86229249 42179"}}, "geometry": {"type": "Point", "coordinates": [81.31878224952709, -53.02007954875023]}}, {"type": "Feature", "properties": {"norad_id": 44543, "name": "BEIDOU-3 M23 (C45)", "group": "gnss", "lat": 6.255623608725267, "lon": 4.667345923882109, "alt_km": 21542.52903808033, "timestamp": "2025-12-07T09:35:10.034999+00:00", "meta": {"OBJECT_NAME": "BEIDOU-3 M23 (C45)", "OBJECT_ID": "2019-061B", "EPOCH": "2025-12-04T17:20:06.370944", "MEAN_MOTION": 1.86227466, "ECCENTRICITY": 0.0006129, "INCLINATION": 54.3989, "RA_OF_ASC_NODE": 189.2553, "ARG_OF_PERICENTER": 23.0087, "MEAN_ANOMALY": 154.4182, "EPHEMERIS_TYPE": 0, "CLASSIFICATION_TYPE": "U", "NORAD_CAT_ID": 44543, "ELEMENT_SET_NO": 999, "REV_AT_EPOCH": 4217, "BSTAR": 0, "MEAN_MOTION_DOT": 1e-06, "MEAN_MOTION_DDOT": 0}, "tle": {"line1": "1 44543U 19061B   25338.72229596  .00000100  00000+0  00000+0 0  9999", "line2": "2 44543  54.3989 189.2553 0006129  23.0087 154.4182  1.86227466 42172"}}, "geometry": {"type": "Point", "coordinates": [4.667345923882109, 6.255623608725267]}}, {"type": "Feature", "properties": {"norad_id": 44624, "name": "EUTELSAT 5 WEST B (EGNOS/PRN 121)", "group": "gnss", "lat": -0.07732701063690173, "lon": -144.81951699513175, "alt_km": 35775.049693335444, "timestamp": "2025-12-07T09:35:10.035013+00:00", "meta": {"OBJECT_NAME": "EUTELSAT 5 WEST B (EGNOS/PRN 121)", "OBJECT_ID": "2019-067A", "EPOCH": "2025-12-06T22:06:38.876256", "MEAN_MOTION": 1.00270528, "ECCENTRICITY": 0.00035934, "INCLINATION": 0.0663, "RA_OF_ASC_NODE": 336.1801, "ARG_OF_PERICENTER": 280.5987, "MEAN_ANOMALY": 145.8386, "EPHEMERIS_TYPE": 0, "CLASSIFICATION_TYPE": "U", "NORAD_CAT_ID": 44624, "ELEMENT_SET_NO": 999, "REV_AT_EPOCH": 2250, "BSTAR": 0, "MEAN_MOTION_DOT": -3.7e-07, "MEAN_MOTION_DDOT": 0}, "tle": {"line1": "1 44624U 19067A   25340.92128329 -.00000037  00000+0  00000+0 0  9992", "line2": "2 44624   0.0663 336.1801 0003593 280.5987 145.8386  1.00270528 22507"}}, "geometry": {"type": "Point", "coordinates": [-144.81951699513175, -0.07732701063690173]}}, {"type": "Feature", "properties": {"norad_id": 44709, "name": "BEIDOU-3 IGSO-3 (C40)", "group": "gnss", "lat": 39.511430378678185, "lon": -42.04920724001646, "alt_km": 35934.6882012724, "timestamp": "2025-12-07T09:35:10.035025+00:00", "meta": {"OBJECT_NAME": "BEIDOU-3 IGSO-3 (C40)", "OBJECT_ID": "2019-073A", "EPOCH": "2025-11-20T07:11:22.740000", "MEAN_MOTION": 1.00250097, "ECCENTRICITY": 0.0044538, "INCLINATION": 55.163, "RA_OF_ASC_NODE": 283.159, "ARG_OF_PERICENTER": 191.5856, "MEAN_ANOMALY": 168.2409, "EPHEMERIS_TYPE": 0, "CLASSIFICATION_TYPE": "U", "NORAD_CAT_ID": 44709, "ELEMENT_SET_NO": 999, "REV_AT_EPOCH": 2236, "BSTAR": 0, "MEAN_MOTION_DOT": -2.06e-06, "MEAN_MOTION_DDOT": 0}, "tle": {"line1": "1 44709U 19073A   25324.29956875 -.00000206  00000+0  00000+0 0  9998", "line2": "2 44709  55.1630 283.1590 0044538 191.5856 168.2409  1.00250097 22360"}}, "geometry": {"type": "Point", "coordinates": [-42.04920724001646, 39.511430378678185]}}, {"type": "Feature", "properties": {"norad_id": 44793, "name": "BEIDOU-3 M22 (C44)", "group": "gnss", "lat": 5.3326917942652186, "lon": -49.576533771022504, "alt_km": 21512.206918530872, "timestamp": "2025-12-07T09:35:10.035039+00:00", "meta": {"OBJECT_NAME": "BEIDOU-3 M22 (C44)", "OBJECT_ID": "2019-078A", "EPOCH": "2025-12-05T05:48:12.053952", "MEAN_MOTION": 1.86231816, "ECCENTRICITY": 0.00057288, "INCLINATION": 54.1154, "RA_OF_ASC_NODE": 306.6493, "ARG_OF_PERICENTER": 22.8633, "MEAN_ANOMALY": 337.1445, "EPHEMERIS_TYPE": 0, "CLASSIFICATION_TYPE": "U", "NORAD_CAT_ID": 44793, "ELEMENT_SET_NO": 999, "REV_AT_EPOCH": 4103, "BSTAR": 0, "MEAN_MOTION_DOT": -6.9e-07, "MEAN_MOTION_DDOT": 0}, "tle": {"line1": "1 44793U 19078A   25339.24180618 -.00000069  00000+0  00000+0 0  9998", "line2": "2 44793  54.1154 306.6493 0005728  22.8633 337.1445  1.86231816 41037"}}, "geometry": {"type": "Point", "coordinates": [-49.576533771022504, 5.3326917942652186]}}, {"type": "Feature", "properties": {"norad_id": 44794, "name": "BEIDOU-3 M21 (C43)", "group": "gnss", "lat": -53.86160487517418, "lon": -136.1018628941291, "alt_km": 21535.39924742101, "timestamp": "2025-12-07T09:35:10.035056+00:00", "meta": {"OBJECT_NAME": "BEIDOU-3 M21 (C43)", "OBJECT_ID": "2019-078B", "EPOCH": "2025-12-05T21:59:25.852416", "MEAN_MOTION": 1.86227538, "ECCENTRICITY": 0.00039607, "INCLINATION": 54.088, "RA_OF_ASC_NODE": 306.5908, "ARG_OF_PERICENTER": 10.7864, "MEAN_ANOMALY": 349.2048, "EPHEMERIS_TYPE": 0, "CLASSIFICATION_TYPE": "U", "NORAD_CAT_ID": 44794, "ELEMENT_SET_NO": 999, "REV_AT_EPOCH": 4105, "BSTAR": 0, "MEAN_MOTION_DOT": -6.9e-07, "MEAN_MOTION_DDOT": 0}, "tle": {"line1": "1 44794U 19078B   25339.91627144 -.00000069  00000+0  00000+0 0  9993", "line2": "2 44794  54.0880 306.5908 0003960  10.7864 349.2048  1.86227538 41052"}}, "geometry": {"type": "Point", "coordinates": [-136.1018628941291, -53.86160487517418]}}, {"type": "Feature", "properties": {"norad_id": 44850, "name": "COSMOS 2544 (759)", "group": "gnss", "lat": -42.95202401995376, "lon": -74.72769212689165, "alt_km": 19102.263853487588, "timestamp": "2025-12-07T09:35:10.035068+00:00", "meta": {"OBJECT_NAME": "COSMOS 2544 (759)", "OBJECT_ID": "2019-088A", "EPOCH": "2025-12-05T05:23:01.027680", "MEAN_MOTION": 2.1310179, "ECCENTRICITY": 0.00137742, "INCLINATION": 65.456, "RA_OF_ASC_NODE": 80.2099, "ARG_OF_PERICENTER": 249.0312, "MEAN_ANOMALY": 110.8229, "EPHEMERIS_TYPE": 0, "CLASSIFICATION_TYPE": "U", "NORAD_CAT_ID": 44850, "ELEMENT_SET_NO": 999, "REV_AT_EPOCH": 4658, "BSTAR": 0, "MEAN_MOTION_DOT": -2e-07, "MEAN_MOTION_DDOT": 0}, "tle": {"line1": "1 44850U 19088A   25339.22431745 -.00000020  00000+0  00000+0 0  9998", "line2": "2 44850  65.4560  80.2099 0013774 249.0312 110.8229  2.13101790 46580"}}, "geometry": {"type": "Point", "coordinates": [-74.72769212689165, -42.95202401995376]}}, {"type": "Feature", "properties": {"norad_id": 44864, "name": "BEIDOU-3 M19 (C41)", "group": "gnss", "lat": 51.49101567652641, "lon": -167.42674598377016, "alt_km": 21570.7583332428, "timestamp": "2025-12-07T09:35:10.035079+00:00", "meta": {"OBJECT_NAME": "BEIDOU-3 M19 (C41)", "OBJECT_ID": "2019-090A", "EPOCH": "2025-12-02T22:27:31.551840", "MEAN_MOTION": 1.86231053, "ECCENTRICITY": 0.00175607, "INCLINATION": 56.3847, "RA_OF_ASC_NODE": 69.2872, "ARG_OF_PERICENTER": 284.9296, "MEAN_ANOMALY": 72.494, "EPHEMERIS_TYPE": 0, "CLASSIFICATION_TYPE": "U", "NORAD_CAT_ID": 44864, "ELEMENT_SET_NO": 999, "REV_AT_EPOCH": 4057, "BSTAR": 0, "MEAN_MOTION_DOT": -4.9e-07, "MEAN_MOTION_DDOT": 0}, "tle": {"line1": "1 44864U 19090A   25336.93578185 -.00000049  00000+0  00000+0 0  9992", "line2": "2 44864  56.3847  69.2872 0017560 284.9296  72.4940  1.86231053 40575"}}, "geometry": {"type": "Point", "coordinates": [-167.42674598377016, 51.49101567652641]}}, {"type": "Feature", "properties": {"norad_id": 44865, "name": "BEIDOU-3 M20 (C42)", "group": "gnss", "lat": -16.177794781796656, "lon": -99.71013763259947, "alt_km": 21536.219772598877, "timestamp": "2025-12-07T09:35:10.035093+00:00", "meta": {"OBJECT_NAME": "BEIDOU-3 M20 (C42)", "OBJECT_ID": "2019-090B", "EPOCH": "2025-12-03T10:37:23.867040", "MEAN_MOTION": 1.86231029, "ECCENTRICITY": 0.00147135, "INCLINATION": 56.3867, "RA_OF_ASC_NODE": 69.3045, "ARG_OF_PERICENTER": 297.7194, "MEAN_ANOMALY": 129.1388, "EPHEMERIS_TYPE": 0, "CLASSIFICATION_TYPE": "U", "NORAD_CAT_ID": 44865, "ELEMENT_SET_NO": 999, "REV_AT_EPOCH": 4057, "BSTAR": 0, "MEAN_MOTION_DOT": -5e-07, "MEAN_MOTION_DDOT": 0}, "tle": {"line1": "1 44865U 19090B   25337.44263735 -.00000050  00000+0  00000+0 0  9994", "line2": "2 44865  56.3867  69.3045 0014713 297.7194 129.1388  1.86231029 40576"}}, "geometry": {"type": "Point", "coordinates": [-99.71013763259947, -16.177794781796656]}}, {"type": "Feature", "properties": {"norad_id": 45344, "name": "BEIDOU-3 G2 (C60)", "group": "gnss", "lat": -2.432880239307284, "lon": -59.808987086319235, "alt_km": 35767.905944785656, "timestamp": "2025-12-07T09:35:10.035105+00:00", "meta": {"OBJECT_NAME": "BEIDOU-3 G2 (C60)", "OBJECT_ID": "2020-017A", "EPOCH": "2025-12-06T20:53:37.649760", "MEAN_MOTION": 1.00273211, "ECCENTRICITY": 0.00043362, "INCLINATION": 2.4859, "RA_OF_ASC_NODE": 43.7839, "ARG_OF_PERICENTER": 264.1175, "MEAN_ANOMALY": 161.4044, "EPHEMERIS_TYPE": 0, "CLASSIFICATION_TYPE": "U", "NORAD_CAT_ID": 45344, "ELEMENT_SET_NO": 999, "REV_AT_EPOCH": 2133, "BSTAR": 0, "MEAN_MOTION_DOT": -1.36e-06, "MEAN_MOTION_DDOT": 0}, "tle": {"line1": "1 45344U 20017A   25340.87057465 -.00000136  00000+0  00000+0 0  9995", "line2": "2 45344   2.4859  43.7839 0004336 264.1175 161.4044  1.00273211 21332"}}, "geometry": {"type": "Point", "coordinates": [-59.808987086319235, -2.432880239307284]}}]}